CCSDS_OMM_VERS = 2.0
CREATION_DATE  = 
ORIGINATOR     = 

OBJECT_NAME    = ATLAS CENTAUR 2
OBJECT_ID      = 1963-047A
CENTER_NAME    = EARTH
REF_FRAME      = TEME
TIME_SYSTEM    = UTC
MEAN_ELEMENT_THEORY = SGP/SGP4

EPOCH          = 2026-03-30T02:48:21.964032
MEAN_MOTION    = 14.12150858
ECCENTRICITY   = .0547422
INCLINATION    = 30.3578
RA_OF_ASC_NODE = 81.4754
ARG_OF_PERICENTER = 260.3278
MEAN_ANOMALY   = 93.5094

EPHEMERIS_TYPE = 0
CLASSIFICATION_TYPE = U
NORAD_CAT_ID   = 694
ELEMENT_SET_NO = 999
REV_AT_EPOCH   = 13451
BSTAR          = .36704E-3
MEAN_MOTION_DOT = .3117E-4
MEAN_MOTION_DDOT = 0

CCSDS_OMM_VERS = 2.0
CREATION_DATE  = 
ORIGINATOR     = 

OBJECT_NAME    = THOR AGENA D R/B
OBJECT_ID      = 1964-002A
CENTER_NAME    = EARTH
REF_FRAME      = TEME
TIME_SYSTEM    = UTC
MEAN_ELEMENT_THEORY = SGP/SGP4

EPOCH          = 2026-03-30T00:51:07.186176
MEAN_MOTION    = 14.34030915
ECCENTRICITY   = .0032623
INCLINATION    = 99.1213
RA_OF_ASC_NODE = 103.4816
ARG_OF_PERICENTER = 197.5968
MEAN_ANOMALY   = 162.4087

EPHEMERIS_TYPE = 0
CLASSIFICATION_TYPE = U
NORAD_CAT_ID   = 733
ELEMENT_SET_NO = 999
REV_AT_EPOCH   = 24121
BSTAR          = .10639E-3
MEAN_MOTION_DOT = .25E-5
MEAN_MOTION_DDOT = 0

CCSDS_OMM_VERS = 2.0
CREATION_DATE  = 
ORIGINATOR     = 

OBJECT_NAME    = SL-3 R/B
OBJECT_ID      = 1964-053B
CENTER_NAME    = EARTH
REF_FRAME      = TEME
TIME_SYSTEM    = UTC
MEAN_ELEMENT_THEORY = SGP/SGP4

EPOCH          = 2026-03-29T22:45:34.002144
MEAN_MOTION    = 14.61382048
ECCENTRICITY   = .008045
INCLINATION    = 65.0755
RA_OF_ASC_NODE = 271.8406
ARG_OF_PERICENTER = 285.8559
MEAN_ANOMALY   = 73.3683

EPHEMERIS_TYPE = 0
CLASSIFICATION_TYPE = U
NORAD_CAT_ID   = 877
ELEMENT_SET_NO = 999
REV_AT_EPOCH   = 26975
BSTAR          = .74996E-4
MEAN_MOTION_DOT = .263E-5
MEAN_MOTION_DDOT = 0

CCSDS_OMM_VERS = 2.0
CREATION_DATE  = 
ORIGINATOR     = 

OBJECT_NAME    = SL-8 R/B
OBJECT_ID      = 1967-045B
CENTER_NAME    = EARTH
REF_FRAME      = TEME
TIME_SYSTEM    = UTC
MEAN_ELEMENT_THEORY = SGP/SGP4

EPOCH          = 2026-03-30T01:24:33.176448
MEAN_MOTION    = 14.45638564
ECCENTRICITY   = .0064919
INCLINATION    = 74.0110
RA_OF_ASC_NODE = 310.0500
ARG_OF_PERICENTER = 311.8083
MEAN_ANOMALY   = 47.7539

EPHEMERIS_TYPE = 0
CLASSIFICATION_TYPE = U
NORAD_CAT_ID   = 2802
ELEMENT_SET_NO = 999
REV_AT_EPOCH   = 9196
BSTAR          = .1043E-3
MEAN_MOTION_DOT = .349E-5
MEAN_MOTION_DDOT = 0

CCSDS_OMM_VERS = 2.0
CREATION_DATE  = 
ORIGINATOR     = 

OBJECT_NAME    = SL-8 R/B
OBJECT_ID      = 1968-040B
CENTER_NAME    = EARTH
REF_FRAME      = TEME
TIME_SYSTEM    = UTC
MEAN_ELEMENT_THEORY = SGP/SGP4

EPOCH          = 2026-03-29T22:33:53.628192
MEAN_MOTION    = 15.03395016
ECCENTRICITY   = .0023246
INCLINATION    = 74.0294
RA_OF_ASC_NODE = 272.3089
ARG_OF_PERICENTER = 88.0116
MEAN_ANOMALY   = 272.3734

EPHEMERIS_TYPE = 0
CLASSIFICATION_TYPE = U
NORAD_CAT_ID   = 3230
ELEMENT_SET_NO = 999
REV_AT_EPOCH   = 9305
BSTAR          = .33523E-3
MEAN_MOTION_DOT = .4545E-4
MEAN_MOTION_DDOT = 0

CCSDS_OMM_VERS = 2.0
CREATION_DATE  = 
ORIGINATOR     = 

OBJECT_NAME    = OAO 2
OBJECT_ID      = 1968-110A
CENTER_NAME    = EARTH
REF_FRAME      = TEME
TIME_SYSTEM    = UTC
MEAN_ELEMENT_THEORY = SGP/SGP4

EPOCH          = 2026-03-30T04:52:46.560288
MEAN_MOTION    = 14.47319398
ECCENTRICITY   = .0005618
INCLINATION    = 34.9924
RA_OF_ASC_NODE = 150.6871
ARG_OF_PERICENTER = 356.1793
MEAN_ANOMALY   = 3.8854

EPHEMERIS_TYPE = 0
CLASSIFICATION_TYPE = U
NORAD_CAT_ID   = 3597
ELEMENT_SET_NO = 999
REV_AT_EPOCH   = 2207
BSTAR          = .85075E-4
MEAN_MOTION_DOT = .297E-5
MEAN_MOTION_DDOT = 0

CCSDS_OMM_VERS = 2.0
CREATION_DATE  = 
ORIGINATOR     = 

OBJECT_NAME    = ISIS 1
OBJECT_ID      = 1969-009A
CENTER_NAME    = EARTH
REF_FRAME      = TEME
TIME_SYSTEM    = UTC
MEAN_ELEMENT_THEORY = SGP/SGP4

EPOCH          = 2026-03-30T03:55:24.437856
MEAN_MOTION    = 11.30419459
ECCENTRICITY   = .1707831
INCLINATION    = 88.4503
RA_OF_ASC_NODE = 153.0740
ARG_OF_PERICENTER = 47.8620
MEAN_ANOMALY   = 325.5418

EPHEMERIS_TYPE = 0
CLASSIFICATION_TYPE = U
NORAD_CAT_ID   = 3669
ELEMENT_SET_NO = 999
REV_AT_EPOCH   = 35084
BSTAR          = .10483E-3
MEAN_MOTION_DOT = .166E-5
MEAN_MOTION_DDOT = 0

CCSDS_OMM_VERS = 2.0
CREATION_DATE  = 
ORIGINATOR     = 

OBJECT_NAME    = SERT 2
OBJECT_ID      = 1970-009A
CENTER_NAME    = EARTH
REF_FRAME      = TEME
TIME_SYSTEM    = UTC
MEAN_ELEMENT_THEORY = SGP/SGP4

EPOCH          = 2026-03-30T02:03:09.497376
MEAN_MOTION    = 13.58731709
ECCENTRICITY   = .0005653
INCLINATION    = 99.2785
RA_OF_ASC_NODE = 31.0659
ARG_OF_PERICENTER = 108.8097
MEAN_ANOMALY   = 261.9165

EPHEMERIS_TYPE = 0
CLASSIFICATION_TYPE = U
NORAD_CAT_ID   = 4327
ELEMENT_SET_NO = 999
REV_AT_EPOCH   = 78266
BSTAR          = .54473E-4
MEAN_MOTION_DOT = -.1E-7
MEAN_MOTION_DDOT = 0

CCSDS_OMM_VERS = 2.0
CREATION_DATE  = 
ORIGINATOR     = 

OBJECT_NAME    = SL-3 R/B
OBJECT_ID      = 1971-028B
CENTER_NAME    = EARTH
REF_FRAME      = TEME
TIME_SYSTEM    = UTC
MEAN_ELEMENT_THEORY = SGP/SGP4

EPOCH          = 2026-03-30T03:44:06.820800
MEAN_MOTION    = 15.62963121
ECCENTRICITY   = .0014669
INCLINATION    = 81.2374
RA_OF_ASC_NODE = 26.7195
ARG_OF_PERICENTER = 200.6297
MEAN_ANOMALY   = 159.4367

EPHEMERIS_TYPE = 0
CLASSIFICATION_TYPE = U
NORAD_CAT_ID   = 5118
ELEMENT_SET_NO = 999
REV_AT_EPOCH   = 99186
BSTAR          = .5775E-3
MEAN_MOTION_DOT = .52818E-3
MEAN_MOTION_DDOT = 0

CCSDS_OMM_VERS = 2.0
CREATION_DATE  = 
ORIGINATOR     = 

OBJECT_NAME    = ASTEX 1
OBJECT_ID      = 1971-089A
CENTER_NAME    = EARTH
REF_FRAME      = TEME
TIME_SYSTEM    = UTC
MEAN_ELEMENT_THEORY = SGP/SGP4

EPOCH          = 2026-03-30T04:03:49.573728
MEAN_MOTION    = 14.50790569
ECCENTRICITY   = .001625
INCLINATION    = 92.7090
RA_OF_ASC_NODE = 158.3787
ARG_OF_PERICENTER = 23.8113
MEAN_ANOMALY   = 336.3841

EPHEMERIS_TYPE = 0
CLASSIFICATION_TYPE = U
NORAD_CAT_ID   = 5560
ELEMENT_SET_NO = 999
REV_AT_EPOCH   = 86527
BSTAR          = .14396E-3
MEAN_MOTION_DOT = .566E-5
MEAN_MOTION_DDOT = 0

CCSDS_OMM_VERS = 2.0
CREATION_DATE  = 
ORIGINATOR     = 

OBJECT_NAME    = SL-8 R/B
OBJECT_ID      = 1971-119B
CENTER_NAME    = EARTH
REF_FRAME      = TEME
TIME_SYSTEM    = UTC
MEAN_ELEMENT_THEORY = SGP/SGP4

EPOCH          = 2026-03-30T02:38:31.618752
MEAN_MOTION    = 14.38246967
ECCENTRICITY   = .054639
INCLINATION    = 73.8857
RA_OF_ASC_NODE = 137.5396
ARG_OF_PERICENTER = 99.8474
MEAN_ANOMALY   = 266.4792

EPHEMERIS_TYPE = 0
CLASSIFICATION_TYPE = U
NORAD_CAT_ID   = 5730
ELEMENT_SET_NO = 999
REV_AT_EPOCH   = 65842
BSTAR          = .44601E-3
MEAN_MOTION_DOT = .8523E-4
MEAN_MOTION_DDOT = 0

CCSDS_OMM_VERS = 2.0
CREATION_DATE  = 
ORIGINATOR     = 

OBJECT_NAME    = OAO 3 (COPERNICUS)
OBJECT_ID      = 1972-065A
CENTER_NAME    = EARTH
REF_FRAME      = TEME
TIME_SYSTEM    = UTC
MEAN_ELEMENT_THEORY = SGP/SGP4

EPOCH          = 2026-03-29T23:57:43.222752
MEAN_MOTION    = 14.60014216
ECCENTRICITY   = .0007062
INCLINATION    = 35.0048
RA_OF_ASC_NODE = 181.6054
ARG_OF_PERICENTER = 322.8858
MEAN_ANOMALY   = 203.5460

EPHEMERIS_TYPE = 0
CLASSIFICATION_TYPE = U
NORAD_CAT_ID   = 6153
ELEMENT_SET_NO = 999
REV_AT_EPOCH   = 84916
BSTAR          = .88049E-4
MEAN_MOTION_DOT = .408E-5
MEAN_MOTION_DDOT = 0

