ATLAS CENTAUR 2         
1 00694U 63047A   26089.11692088  .00003117  00000+0  36704-3 0  9993
2 00694  30.3578  81.4754 0547422 260.3278  93.5094 14.12150858134517
THOR AGENA D R/B        
1 00733U 64002A   26089.03549984  .00000250  00000+0  10639-3 0  9990
2 00733  99.1213 103.4816 0032623 197.5968 162.4087 14.34030915241212
SL-3 R/B                
1 00877U 64053B   26088.94831021  .00000263  00000+0  74996-4 0  9991
2 00877  65.0755 271.8406 0080450 285.8559  73.3683 14.61382048269755
SL-8 R/B                
1 02802U 67045B   26089.05871732  .00000349  00000+0  10430-3 0  9998
2 02802  74.0110 310.0500 0064919 311.8083  47.7539 14.45638564 91965
SL-8 R/B                
1 03230U 68040B   26088.94020403  .00004545  00000+0  33523-3 0  9998
2 03230  74.0294 272.3089 0023246  88.0116 272.3734 15.03395016 93056
OAO 2                   
1 03597U 68110A   26089.20331667  .00000297  00000+0  85075-4 0  9999
2 03597  34.9924 150.6871 0005618 356.1793   3.8854 14.47319398 22077
ISIS 1                  
1 03669U 69009A   26089.16347729  .00000166  00000+0  10483-3 0  9993
2 03669  88.4503 153.0740 1707831  47.8620 325.5418 11.30419459350843
SERT 2                  
1 04327U 70009A   26089.08552659 -.00000001  00000+0  54473-4 0  9995
2 04327  99.2785  31.0659 0005653 108.8097 261.9165 13.58731709782667
SL-3 R/B                
1 05118U 71028B   26089.15563450  .00052818  00000+0  57750-3 0  9997
2 05118  81.2374  26.7195 0014669 200.6297 159.4367 15.62963121991868
ASTEX 1                 
1 05560U 71089A   26089.16932377  .00000566  00000+0  14396-3 0  9996
2 05560  92.7090 158.3787 0016250  23.8113 336.3841 14.50790569865278
SL-8 R/B                
1 05730U 71119B   26089.11008818  .00008523  00000+0  44601-3 0  9991
2 05730  73.8857 137.5396 0546390  99.8474 266.4792 14.38246967658428
OAO 3 (COPERNICUS)      
1 06153U 72065A   26088.99841693  .00000408  00000+0  88049-4 0  9992
2 06153  35.0048 181.6054 0007062 322.8858 203.5460 14.60014216849166
